ONEWEB-0444             
1 51638U 22012S   24006.09508600  .00000652  00000+0  18319-2 0  9996
2 51638  87.8902 213.6716 0001475  97.3174 262.8121 13.10374478 92374
ONEWEB-0445             
1 51639U 22012T   24006.49800403  .00000133  00000+0  34584-3 0  9994
2 51639  87.8884 213.5718 0001496  70.8714 289.2575 13.10367024 92436
ONEWEB-0446             
1 51640U 22012U   24006.47525908  .00000581  00000+0  16288-2 0  9995
2 51640  87.8900 213.5859 0001640  80.4575 279.6737 13.10378447 92418
ONEWEB-0448             
1 51641U 22012V   24006.48013125  .00000683  00000+0  19200-2 0  9990
2 51641  87.8899 213.5862 0001399  98.1328 261.9958 13.10375366 92385
ONEWEB-0449             
1 51642U 22012W   24006.48499176  .00000542  00000+0  15158-2 0  9997
2 51642  87.8876 213.5906 0001236  85.4870 274.6399 13.10378576 92398
ONEWEB-0451             
1 51643U 22012X   24006.50269209  .00000091  00000+0  20171-3 0  9994
2 51643  87.9197 183.3531 0001387  99.0697 261.0591 13.17648058 96108
ONEWEB-0452             
1 51644U 22012Y   24006.50110937 -.00000060  00000+0 -18868-3 0  9996
2 51644  87.9206 183.3838 0001092  95.2750 264.8506 13.17650165 96111
ONEWEB-0455             
1 51645U 22012Z   24006.50531562  .00000401  00000+0  17102-3 0  9995
2 51645  87.5360 163.6890 0018031 148.7252 211.5015 14.22686282 99179
